#dP2022 11 20 18  0  0.00000000      96 __u+U ITR00 EXT  IAC
## 2237  64800.00000000   900.00000000 59903 0.7500000000000
+  118   C06C07C08C09C10C11C12C13C14C16C19C20C21C22C23C24C25
+        C26C27C28C29C30C32C33C34C35C36C37C38C39C40C41C42C43
+        C44C45C46E01E02E03E04E05E07E08E09E10E11E12E13E14E15
+        E18E19E21E24E25E26E27E30E31E33E34E36G01G02G03G04G05
+        G06G07G08G09G10G11G12G13G14G15G16G17G18G19G20G21G22
+        G23G24G25G26G27G29G30G31G32J02J03J04R01R02R03R04R05
+        R07R08R09R11R12R13R14R15R17R18R19R20R21R22R24R25  0
++        10  9  9 10  8  7  7 10  7  9  8  8  8  8  8  9  8
++         8  8  9 10  8  8  8  7  8  7  7 10  8 10  8  8  8
++         9  8  9  8  7  9  6  8  8  7  8  8  9  9  9  8  7
++         9  8  8  7  7  8  7  7  9  8  9  7  8  8  7  7  8
++         9  7  6  7  8  7  9  6  7  7  7  7  8  8  7  7  6
++         8  6  7  6  7  8  7  6  7  9  9 10  9  8  8  8  9
++         9  6 10  7  9  9  9  8  8  8  9  9  8  7  8  9  0
%c M  cc GPS ccc cccc cccc cccc cccc ccccc ccccc ccccc ccccc
%c cc cc ccc ccc cccc cccc cccc cccc ccccc ccccc ccccc ccccc
%f  0.0000000  0.000000000  0.00000000000  0.000000000000000
%f  0.0000000  0.000000000  0.00000000000  0.000000000000000
%i    0    0    0    0      0      0      0      0         0
%i    0    0    0    0      0      0      0      0         0
/* IAC                                ULTRA-RAPID PREDICTION
/* S/V CLOCKS ARE ALIGNED TO GNSS TIME                      
/* G:C1WC2W R:C1PC2P E:C1XC5X C:C2IC6I J:C1CC2S             
/* PCV:IGS14_2233 OL/AL:FES2004  NONE     YN ORB:CoN CLK:CoN
*  2022 11 21 11 45  0.00000000
PC06 -14483.775521  38725.274439   7638.202187     -3.918863
PC07  -2255.024525  32769.837091  26564.257306    183.447401
PC08 -14410.354817  20271.910716 -34093.689602    514.625626
PC09  -8653.622209  37700.671211  16500.227067   -801.682942
PC10   5125.609752  35819.729813  22333.945493     64.675938
PC11 -13993.773163  23250.061243   6653.650439   -279.805055
PC12 -17457.208988   8016.873380  20292.417153    311.199216
PC13  -4510.215071  22305.397554 -35366.353015    138.880812
PC14  -7373.083049  15042.385991 -22315.235447    -45.203785
PC16 -17829.883362  37963.648228   2682.055510    113.743886
PC19  -1378.240906 -21019.165330  18315.199581   -911.633340
PC20  13689.568055  -8099.375996  22934.730332    830.696297
PC21 -21596.758285 -10693.213657 -14051.195098   -869.537463
PC22 -16349.128358 -22423.005655   2847.218007   -781.748756
PC23  11881.287881  13505.516349  21334.365870   -875.871685
PC24 -25365.574893   9446.471184   6847.002315   -777.566845
PC25  -8088.041428  16808.679160  20753.698100     27.954018
PC26 -26411.475553  -1297.424139  -8992.811581    -39.013610
PC27  16158.654515   1790.107617 -22697.743109     54.692714
PC28   6620.318548  19491.941718 -18836.946518     38.492932
PC29   6711.987018 -26910.802737   3077.607098     43.459190
PC30  16384.923227 -17427.335624 -14390.388629      1.032331
PC32  21704.343062  10606.149028  13980.208266   -710.057867
PC33   1410.396750  20984.452146 -18348.249060   -907.541706
PC34 -16105.027578  18375.583752  13455.999775     44.161528
PC35  -6286.342644 -20501.390140  17869.518391     98.242528
PC36   9142.685886 -16551.425169 -20498.637960   -824.571367
PC37  25820.729789   2837.259799  10169.267577   -911.441588
PC38 -21864.989096  21216.684207 -29210.381687     39.663037
PC39 -18458.690148  37711.969162  -2497.651951     -0.899492
PC40  -6074.490959  28159.062117  30866.073981     -8.553982
PC41  16120.586520  22520.643040  -3356.432531   -298.848889
PC42 -14533.857096   7019.022220 -22727.181866   -705.106592
PC43  -7284.132437  26827.548374  -2330.696206     26.136390
PC44 -16263.243341  -1515.837525  22615.865429    120.824601
PC45 -12293.410514 -13228.476396 -21284.251295    -25.130161
PC46  24406.656114 -10420.903811  -8557.797153    -14.454729
PE01 -11839.234603 -18806.592135 -19555.667376   -569.787968
PE02  12055.277422  18792.081670  19423.788144      3.928977
PE03   7707.560680  28268.470831   4220.926521   -622.160829
PE04 -16485.194074 -14789.844574 -19642.551636  -1163.299726
PE05  -5803.331600  25412.805636 -14027.480900   -122.520516
PE07  15721.569453  -7821.557770  23824.773744     -1.039112
PE08  16399.864525  14788.649739  19705.858080   -635.976176
PE09 -15629.413881   7611.404121 -23963.987257   -736.908037
PE10 -23412.836865   4873.069225  17448.850408   -492.370649
PE11 -24946.747988  13510.635833   8430.087730   1224.906192
PE12 -18429.349699  -3964.074075  22821.467470   -288.863722
PE13  24951.670153 -12925.438127  -9290.699392    430.555549
PE14 -12050.560230 -14485.139005  13976.871228     62.871785
PE15  18197.575334   4115.835817 -22969.320629    706.001355
PE18  17204.532284  18548.371385 -20377.188854   -717.665717
PE19  -5926.192717 -28955.125918  -1702.089245  -3940.146153
PE21   8180.029320 -14688.290178 -24359.433087   -495.909859
PE24 -25585.854752   1110.041872  14858.474081   -959.488255
PE25  -8536.164894  14538.064433  24338.737092   -593.186055
PE26  16363.652439 -22344.932962  10439.850628  -1870.537985
PE27  25060.851286  -1912.860343 -15617.072130   -444.840900
PE30  26702.278553  12399.955949   2953.774645  -1016.180767
PE31 -27037.249367 -11856.458975  -2216.788220   -508.728671
PE33   -754.311727 -18616.044705  23009.005701   -455.566032
PE34    945.479254  18534.720001 -23064.476338    -15.722800
PE36 -17016.822209  22202.205899  -9672.601005   -464.074104
PG01  -8556.905094  18959.032983 -16618.790276    248.585185
PG02   4572.958001 -19752.513223  17894.230912   -636.836929
PG03    204.270534  16014.974495 -21331.432613   -373.733601
PG04  -1081.987897  26252.141765  -3483.255198    -82.559271
PG05  13753.346783  -9653.955911  20422.891639   -105.141366
PG06  21741.221727  -2998.308139 -14946.223418    523.388989
PG07   7254.236947  13925.183407  21817.150388    284.680325
PG08  -7223.073739  21394.948280  13635.179264    -94.866740
PG09   7849.050372  24228.296861   7378.318507   -265.388892
PG10 -24110.852296 -11546.600947    452.526123    -12.820344
PG11  23617.505600 -11424.965868  -4001.574268    -43.296146
PG12   1756.322622 -15941.108008 -21459.243485   -306.847162
PG13  12877.895848 -14820.572881  17622.275560    428.506781
PG14  22886.838276  13429.198637   2166.049540    -79.959827
PG15   4710.598711 -22418.222359  12749.942842    -10.576073
PG16 -18639.748654   3858.930074  18431.959707   -526.845305
PG17  12366.307308  14817.671944 -17771.139565    679.766291
PG18  -8595.535911 -12233.210784  21954.504116    -30.120055
PG19  14874.175793   3028.904832 -22044.969355    240.288566
PG20  23208.923830  -2762.823988  12417.621264    468.613542
PG21 -15099.653184  19635.577390  -7845.598531    155.578669
PG22 -14997.001407    563.717169 -21490.968462    369.033889
PG23 -18461.865580 -15944.928862  10667.413248     -0.873602
PG24  10610.170227 -20840.825931 -12519.338392     49.671927
PG25 -10152.332944 -17972.858499 -17163.174323    394.737887
PG26 -24810.045025  -2199.073509   9587.088241    236.421547
PG27 -12901.241268  10940.004874  20149.268127    172.853380
PG29  -4268.585226 -25473.022508   5965.147911   -568.741532
PG30  17721.574274   5135.598434  19281.407912   -536.478810
PG31 -22840.738985   3592.789319 -13627.951496   -200.885276
PG32 -14527.025649 -11296.804871 -19072.062465   -303.533701
PJ02 -27710.535507  21925.023128  28057.671836     -0.169380
PJ03 -32470.577006  26260.749067  10833.705230     -5.068696
PJ04 -23291.816231  22052.453774 -22205.723117    113.416586
PR01  11857.036971  22407.388427  -2862.178804     18.245940
PR02  15564.668511  13071.168100  15401.720327    -23.357908
PR03  10318.988692  -3913.264448  23032.034773     67.679130
PR04   -636.400257 -18222.737153  17868.148227    165.723579
PR05 -11119.969375 -22790.942676   2909.786053    103.274863
PR07  -9948.448274   4539.519832 -23014.246792     44.698096
PR08    763.365699  18323.463772 -17661.563006    -68.199513
PR09 -24049.236811  -3381.550206  -7663.153668     88.791942
PR11  -9985.711663  10114.323601  21187.628514     19.479753
PR12  10717.301099  10001.113301  20894.016385     23.040921
PR13  23405.063889   4183.334955   9217.983723    -29.139569
PR14  23139.667642  -4750.651537  -9632.670587     24.080343
PR15   9024.145200 -10294.040415 -21504.860042     92.757167
PR17  15873.795575 -14853.302446 -13292.552513    580.073364
PR18  11979.132261 -22346.704231   3021.901960     53.070086
PR19   3221.332227 -18828.809507  16904.964149   -211.771844
PR20 -10637.589835  -2403.187613  23069.625313    -82.566986
PR21 -15924.182153  15996.631766  11920.105940   -351.439372
PR22 -12419.809389  21962.199741  -3690.724027     16.420037
PR24  11440.480476   1660.480733 -22713.058446    127.864709
PR25 -16745.902276  13658.645818  13581.605338     46.884504
EOF
